     2              NAVIGATION DATA                         RINEX VERSION / TYPE
CCRINEXN V1.6.0 UX  CDDIS               29-SEP-16 15:33     PGM / RUN BY / DATE 
IGS BROADCAST EPHEMERIS FILE                                COMMENT             
    0.1024D-07  0.7451D-08 -0.5960D-07 -0.5960D-07          ION ALPHA           
    0.8806D+05  0.0000D+00 -0.1966D+06 -0.6554D+05          ION BETA            
   -0.465661287308D-08-0.888178419700D-14   503808     1916 DELTA-UTC: A0,A1,T,W
    17                                                      LEAP SECONDS        
                                                            END OF HEADER       
25 16  9 28  8  0  0.0-0.253777485341D-03-0.693489710102D-11 0.000000000000D+00
    0.290000000000D+02 0.440937500000D+02 0.390944855851D-08 0.249180901204D+01
    0.222213566303D-05 0.559089437593D-02 0.125262886286D-04 0.515369977188D+04
    0.288000000000D+06-0.614672899246D-07-0.229756675202D+00-0.800937414169D-07
    0.978543686901D+00 0.144687500000D+03 0.781843506532D+00-0.759210195581D-08
    0.489306095849D-10 0.100000000000D+01 0.191600000000D+04 0.000000000000D+00
    0.200000000000D+01 0.000000000000D+00 0.558793544769D-08 0.290000000000D+02
    0.280800000000D+06 0.400000000000D+01 0.000000000000D+00 0.000000000000D+00
26 16  9 28  8  0  0.0-0.477599445730D-03-0.670752342558D-11 0.000000000000D+00
    0.800000000000D+01 0.258437500000D+02 0.439446876155D-08 0.205774384577D+01
    0.151060521603D-05 0.100482348353D-02 0.123903155327D-04 0.515359309006D+04
    0.288000000000D+06 0.558793544769D-07-0.240901888793D+00 0.819563865662D-07
    0.960437683799D+00 0.138781250000D+03-0.120207285150D+00-0.795533137148D-08
    0.171435712414D-10 0.100000000000D+01 0.191600000000D+04 0.000000000000D+00
    0.200000000000D+01 0.000000000000D+00 0.698491930962D-08 0.800000000000D+01
    0.286170000000D+06 0.400000000000D+01 0.000000000000D+00 0.000000000000D+00
28 16  9 28  8  0  0.0 0.555287115276D-03 0.272848410532D-11 0.000000000000D+00
    0.970000000000D+02 0.292812500000D+02 0.378872933027D-08 0.999010753471D+00
    0.147148966789D-05 0.199032231467D-01 0.118352472782D-04 0.515363973808D+04
    0.288000000000D+06-0.374391674995D-06-0.153804680777D+00-0.199303030968D-06
    0.989676290139D+00 0.174406250000D+03-0.161093070164D+01-0.790782905824D-08
    0.482162955395D-10 0.100000000000D+01 0.191600000000D+04 0.000000000000D+00
    0.280000000000D+01 0.000000000000D+00-0.107102096081D-07 0.970000000000D+02
    0.280800000000D+06 0.000000000000D+00 0.000000000000D+00 0.000000000000D+00
29 16  9 28  8  0  0.0 0.649543944746D-03-0.125055521494D-11 0.000000000000D+00
    0.750000000000D+02 0.532187500000D+02 0.447018620120D-08 0.214067352787D+01
    0.269338488579D-05 0.535175087862D-03 0.405311584473D-05 0.515373870468D+04
    0.288000000000D+06-0.316649675369D-07 0.870816804581D+00-0.372529029846D-08
    0.978517894192D+00 0.310781250000D+03 0.102171756664D+00-0.821998525252D-08
    0.190722230061D-09 0.100000000000D+01 0.191600000000D+04 0.000000000000D+00
    0.200000000000D+01 0.000000000000D+00-0.102445483208D-07 0.750000000000D+02
    0.280800000000D+06 0.400000000000D+01 0.000000000000D+00 0.000000000000D+00
30 16  9 28  8  0  0.0 0.152121298015D-03 0.147792889038D-11 0.000000000000D+00
    0.380000000000D+02-0.541875000000D+02 0.498770775805D-08-0.262503067682D+01
   -0.275857746601D-05 0.241089565679D-02 0.712089240551D-05 0.515376735878D+04
    0.288000000000D+06-0.782310962677D-07-0.121364472661D+01-0.931322574616D-08
    0.950484916678D+00 0.241718750000D+03-0.313184553033D+01-0.829820279631D-08
   -0.370729728095D-09 0.100000000000D+01 0.191600000000D+04 0.000000000000D+00
    0.200000000000D+01 0.000000000000D+00 0.372529029846D-08 0.380000000000D+02
    0.283650000000D+06 0.400000000000D+01 0.000000000000D+00 0.000000000000D+00
31 16  9 28  8  0  0.0 0.245525967330D-03-0.216004991671D-11 0.000000000000D+00
    0.160000000000D+02-0.560000000000D+02 0.462340686917D-08-0.281155256808D+01
   -0.270642340183D-05 0.833005795721D-02 0.717118382454D-05 0.515355637550D+04
    0.288000000000D+06-0.931322574615D-07-0.124613737917D+01 0.447034835815D-07
    0.969488765270D+00 0.246687500000D+03-0.377920917329D+00-0.800211903466D-08
   -0.407516974718D-09 0.100000000000D+01 0.191600000000D+04 0.000000000000D+00
    0.200000000000D+01 0.000000000000D+00-0.135041773319D-07 0.160000000000D+02
    0.280800000000D+06 0.400000000000D+01 0.000000000000D+00 0.000000000000D+00
32 16  9 28  8  0  0.0-0.132474582642D-03-0.150066625793D-10 0.000000000000D+00
    0.740000000000D+02 0.510625000000D+02 0.486698844389D-08 0.572752307627D+00
    0.246986746788D-05 0.641604186967D-03 0.573880970478D-05 0.515364477539D+04
    0.288000000000D+06-0.335276126862D-07-0.233298511346D+01 0.000000000000D+00
    0.959069235117D+00 0.268500000000D+03-0.234709570589D+01-0.830498879326D-08
    0.453947480163D-09 0.100000000000D+01 0.191600000000D+04 0.000000000000D+00
    0.200000000000D+01 0.000000000000D+00 0.931322574616D-09 0.740000000000D+02
    0.281448000000D+06 0.400000000000D+01 0.000000000000D+00 0.000000000000D+00
27 16  9 28  9 59 28.0 0.144930556416D-03 0.488853402203D-11 0.000000000000D+00
    0.880000000000D+02 0.638125000000D+02 0.471198198725D-08 0.119721855723D+01
    0.345334410667D-05 0.382341677323D-02 0.446848571300D-05 0.515364876747D+04
    0.295168000000D+06 0.577419996262D-07 0.810284881035D+00 0.279396772385D-07
    0.972484053464D+00 0.296906250000D+03 0.341974142561D+00-0.838677791439D-08
    0.252510518077D-09 0.100000000000D+01 0.191600000000D+04 0.000000000000D+00
    0.200000000000D+01 0.000000000000D+00 0.186264514923D-08 0.880000000000D+02
    0.294210000000D+06 0.400000000000D+01 0.000000000000D+00 0.000000000000D+00
 2 16  9 28  9 59 44.0 0.547081232071D-03-0.500222085975D-11 0.000000000000D+00
    0.390000000000D+02-0.715937500000D+02 0.528986321413D-08-0.482593058464D+00
   -0.367127358913D-05 0.159679040080D-01 0.503845512867D-05 0.515364239883D+04
    0.295184000000D+06-0.968575477600D-07 0.182025517161D+01 0.203028321266D-06
    0.943871818907D+00 0.275937500000D+03-0.208152135551D+01-0.886929818478D-08
   -0.441804121065D-09 0.100000000000D+01 0.191600000000D+04 0.000000000000D+00
    0.200000000000D+01 0.000000000000D+00-0.204890966415D-07 0.390000000000D+02
    0.288000000000D+06 0.000000000000D+00 0.000000000000D+00 0.000000000000D+00
 8 16  9 28  9 59 44.0-0.334582291543D-04-0.136424205266D-11 0.000000000000D+00
    0.700000000000D+01 0.665625000000D+02 0.484377319117D-08 0.199752568012D+01
    0.352784991264D-05 0.176703336183D-02 0.439211726189D-05 0.515375292397D+04
    0.295184000000D+06 0.745058059692D-08 0.806616624192D+00-0.949949026108D-07
    0.964388021969D+00 0.292031250000D+03-0.102060540365D+01-0.840177853923D-08
    0.242152943785D-09 0.100000000000D+01 0.191600000000D+04 0.000000000000D+00
    0.200000000000D+01 0.000000000000D+00 0.512227416039D-08 0.700000000000D+01
    0.288000000000D+06 0.400000000000D+01 0.000000000000D+00 0.000000000000D+00
10 16  9 28  9 59 44.0-0.102579127997D-03-0.397903932026D-11 0.000000000000D+00
    0.700000000000D+01-0.656250000000D+01 0.415553023737D-08-0.306497037204D+01
   -0.298023223877D-06 0.174568290822D-02 0.128932297230D-04 0.515368588638D+04
    0.295184000000D+06 0.223517417908D-07 0.290627918647D+01 0.447034835815D-07
    0.960139479652D+00 0.129218750000D+03-0.287103144516D+01-0.778032408173D-08
    0.156077929844D-09 0.100000000000D+01 0.191600000000D+04 0.000000000000D+00
    0.200000000000D+01 0.000000000000D+00 0.232830643654D-08 0.700000000000D+01
    0.288000000000D+06 0.400000000000D+01 0.000000000000D+00 0.000000000000D+00
 1 16  9 28 10  0  0.0 0.354666262865D-04 0.125055521494D-11 0.000000000000D+00
    0.320000000000D+02-0.881875000000D+02 0.462126392276D-08-0.939368212434D+00
   -0.464171171188D-05 0.592331215739D-02 0.541843473911D-05 0.515370283127D+04
    0.295200000000D+06 0.199303030968D-06 0.186846275935D+01 0.335276126862D-07
    0.965072730536D+00 0.278375000000D+03 0.555192733686D+00-0.829355974577D-08
   -0.525736184737D-09 0.100000000000D+01 0.191600000000D+04 0.000000000000D+00
    0.200000000000D+01 0.000000000000D+00 0.512227416039D-08 0.320000000000D+02
    0.295020000000D+06 0.400000000000D+01 0.000000000000D+00 0.000000000000D+00
 3 16  9 28 10  0  0.0-0.895829871297D-04-0.204636307899D-11 0.000000000000D+00
    0.690000000000D+02-0.173750000000D+02 0.411838583301D-08-0.198681800045D+01
   -0.752508640289D-06 0.217801309191D-03 0.124722719193D-04 0.515362107086D+04
    0.295200000000D+06-0.689178705216D-07 0.291017880673D+01-0.186264514923D-08
    0.959926077940D+00 0.139625000000D+03 0.473970189207D+00-0.775889461768D-08
    0.867893294097D-10 0.000000000000D+00 0.191600000000D+04 0.000000000000D+00
    0.200000000000D+01 0.000000000000D+00 0.139698386192D-08 0.690000000000D+02
    0.288390000000D+06 0.400000000000D+01 0.000000000000D+00 0.000000000000D+00
 4 16  9 28 10  0  0.0 0.350270420313D-05 0.352429196937D-11 0.000000000000D+00
    0.340000000000D+02 0.501562500000D+02 0.465840832712D-08 0.263203590540D+01
    0.248104333878D-05 0.841856189072D-02 0.464916229248D-05 0.515360208511D+04
    0.295200000000D+06 0.167638063431D-06-0.221378908653D+01 0.763684511185D-07
    0.966208314843D+00 0.290468750000D+03-0.101611986568D+01-0.818426947910D-08
    0.286797660560D-09 0.100000000000D+01 0.191600000000D+04 0.000000000000D+00
    0.200000000000D+01 0.630000000000D+02-0.372529029846D-08 0.340000000000D+02
    0.291120000000D+06 0.400000000000D+01 0.000000000000D+00 0.000000000000D+00
